<?xml version="1.0" encoding="UTF-8"?>
<!-- track-length = 1964 filtered ascend = 1 plain-ascend = -2 cost=2975 energy=.0kwh time=5m 23s -->
<gpx 
 xmlns="http://www.topografix.com/GPX/1/1" 
 xmlns:xsi="http://www.w3.org/2001/XMLSchema-instance" 
 xsi:schemaLocation="http://www.topografix.com/GPX/1/1 http://www.topografix.com/GPX/1/1/gpx.xsd" 
 creator="BRouter-1.7.10" version="1.1">
 <trk>
  <name>brouter_trekking_0</name>
  <trkseg>
   <trkpt lon="-0.127818" lat="51.507392"><ele>8.0</ele></trkpt>
   <trkpt lon="-0.127843" lat="51.507415"><ele>8.25</ele></trkpt>
   <trkpt lon="-0.127937" lat="51.507432"><ele>8.5</ele></trkpt>
   <trkpt lon="-0.127996" lat="51.507446"><ele>8.75</ele></trkpt>
   <trkpt lon="-0.127933" lat="51.507502"><ele>8.75</ele></trkpt>
   <trkpt lon="-0.127872" lat="51.507533"><ele>9.0</ele></trkpt>
   <trkpt lon="-0.127827" lat="51.507548"><ele>9.0</ele></trkpt>
   <trkpt lon="-0.127710" lat="51.507570"><ele>8.75</ele></trkpt>
   <trkpt lon="-0.127630" lat="51.507577"><ele>8.5</ele></trkpt>
   <trkpt lon="-0.127556" lat="51.507576"><ele>8.25</ele></trkpt>
   <trkpt lon="-0.127496" lat="51.507569"><ele>8.0</ele></trkpt>
   <trkpt lon="-0.127405" lat="51.507540"><ele>8.0</ele></trkpt>
   <trkpt lon="-0.127355" lat="51.507515"><ele>8.0</ele></trkpt>
   <trkpt lon="-0.127322" lat="51.507497"><ele>7.75</ele></trkpt>
   <trkpt lon="-0.127284" lat="51.507463"><ele>7.75</ele></trkpt>
   <trkpt lon="-0.127280" lat="51.507455"><ele>7.75</ele></trkpt>
   <trkpt lon="-0.127278" lat="51.507436"><ele>7.75</ele></trkpt>
   <trkpt lon="-0.127301" lat="51.507360"><ele>7.25</ele></trkpt>
   <trkpt lon="-0.127341" lat="51.507302"><ele>7.25</ele></trkpt>
   <trkpt lon="-0.127413" lat="51.507254"><ele>7.0</ele></trkpt>
   <trkpt lon="-0.127434" lat="51.507209"><ele>6.75</ele></trkpt>
   <trkpt lon="-0.127439" lat="51.507168"><ele>6.75</ele></trkpt>
   <trkpt lon="-0.127438" lat="51.507132"><ele>6.5</ele></trkpt>
   <trkpt lon="-0.127396" lat="51.506850"><ele>5.5</ele></trkpt>
   <trkpt lon="-0.127370" lat="51.506790"><ele>5.5</ele></trkpt>
   <trkpt lon="-0.127306" lat="51.506645"><ele>5.25</ele></trkpt>
   <trkpt lon="-0.127231" lat="51.506483"><ele>5.0</ele></trkpt>
   <trkpt lon="-0.127109" lat="51.506271"><ele>5.0</ele></trkpt>
   <trkpt lon="-0.127070" lat="51.506199"><ele>5.0</ele></trkpt>
   <trkpt lon="-0.126980" lat="51.506154"><ele>5.0</ele></trkpt>
   <trkpt lon="-0.126959" lat="51.506114"><ele>5.0</ele></trkpt>
   <trkpt lon="-0.126945" lat="51.506089"><ele>5.0</ele></trkpt>
   <trkpt lon="-0.126897" lat="51.506009"><ele>4.75</ele></trkpt>
   <trkpt lon="-0.126707" lat="51.505621"><ele>4.0</ele></trkpt>
   <trkpt lon="-0.126655" lat="51.505502"><ele>3.75</ele></trkpt>
   <trkpt lon="-0.126597" lat="51.505396"><ele>3.75</ele></trkpt>
   <trkpt lon="-0.126521" lat="51.505246"><ele>4.0</ele></trkpt>
   <trkpt lon="-0.126441" lat="51.505048"><ele>4.0</ele></trkpt>
   <trkpt lon="-0.126418" lat="51.504996"><ele>4.0</ele></trkpt>
   <trkpt lon="-0.126357" lat="51.504855"><ele>4.0</ele></trkpt>
   <trkpt lon="-0.126306" lat="51.504729"><ele>4.0</ele></trkpt>
   <trkpt lon="-0.126293" lat="51.504698"><ele>4.0</ele></trkpt>
   <trkpt lon="-0.126205" lat="51.504452"><ele>4.0</ele></trkpt>
   <trkpt lon="-0.126156" lat="51.504266"><ele>4.0</ele></trkpt>
   <trkpt lon="-0.126139" lat="51.504200"><ele>4.0</ele></trkpt>
   <trkpt lon="-0.126113" lat="51.504008"><ele>4.0</ele></trkpt>
   <trkpt lon="-0.126046" lat="51.503421"><ele>4.0</ele></trkpt>
   <trkpt lon="-0.126040" lat="51.503367"><ele>4.0</ele></trkpt>
   <trkpt lon="-0.126008" lat="51.503154"><ele>4.0</ele></trkpt>
   <trkpt lon="-0.125998" lat="51.503039"><ele>4.0</ele></trkpt>
   <trkpt lon="-0.125992" lat="51.502975"><ele>4.0</ele></trkpt>
   <trkpt lon="-0.125974" lat="51.502763"><ele>4.0</ele></trkpt>
   <trkpt lon="-0.125975" lat="51.502665"><ele>4.0</ele></trkpt>
   <trkpt lon="-0.125986" lat="51.502407"><ele>4.5</ele></trkpt>
   <trkpt lon="-0.125991" lat="51.502326"><ele>4.5</ele></trkpt>
   <trkpt lon="-0.125992" lat="51.502290"><ele>4.5</ele></trkpt>
   <trkpt lon="-0.125993" lat="51.502237"><ele>4.5</ele></trkpt>
   <trkpt lon="-0.126001" lat="51.502105"><ele>4.75</ele></trkpt>
   <trkpt lon="-0.126019" lat="51.502013"><ele>4.75</ele></trkpt>
   <trkpt lon="-0.126088" lat="51.501563"><ele>4.75</ele></trkpt>
   <trkpt lon="-0.126100" lat="51.501434"><ele>4.75</ele></trkpt>
   <trkpt lon="-0.126137" lat="51.501371"><ele>5.0</ele></trkpt>
   <trkpt lon="-0.126153" lat="51.501197"><ele>5.5</ele></trkpt>
   <trkpt lon="-0.126158" lat="51.501150"><ele>5.5</ele></trkpt>
   <trkpt lon="-0.126160" lat="51.501130"><ele>5.75</ele></trkpt>
   <trkpt lon="-0.126154" lat="51.501008"><ele>5.5</ele></trkpt>
   <trkpt lon="-0.126151" lat="51.500958"><ele>5.25</ele></trkpt>
   <trkpt lon="-0.126150" lat="51.500926"><ele>5.25</ele></trkpt>
   <trkpt lon="-0.126330" lat="51.500931"><ele>5.0</ele></trkpt>
   <trkpt lon="-0.126405" lat="51.500940"><ele>5.0</ele></trkpt>
   <trkpt lon="-0.127088" lat="51.500978"><ele>5.0</ele></trkpt>
   <trkpt lon="-0.127116" lat="51.500979"><ele>5.0</ele></trkpt>
   <trkpt lon="-0.127228" lat="51.501051"><ele>5.0</ele></trkpt>
   <trkpt lon="-0.127310" lat="51.501099"><ele>5.0</ele></trkpt>
   <trkpt lon="-0.127376" lat="51.501143"><ele>4.75</ele></trkpt>
   <trkpt lon="-0.127449" lat="51.501151"><ele>4.75</ele></trkpt>
   <trkpt lon="-0.127512" lat="51.501163"><ele>4.75</ele></trkpt>
   <trkpt lon="-0.127865" lat="51.501188"><ele>5.0</ele></trkpt>
   <trkpt lon="-0.128319" lat="51.501212"><ele>4.5</ele></trkpt>
   <trkpt lon="-0.129447" lat="51.501306"><ele>4.0</ele></trkpt>
   <trkpt lon="-0.129492" lat="51.501309"><ele>4.0</ele></trkpt>
   <trkpt lon="-0.129619" lat="51.501306"><ele>4.0</ele></trkpt>
   <trkpt lon="-0.129696" lat="51.501320"><ele>4.0</ele></trkpt>
   <trkpt lon="-0.129800" lat="51.501330"><ele>4.0</ele></trkpt>
   <trkpt lon="-0.129847" lat="51.501335"><ele>4.0</ele></trkpt>
   <trkpt lon="-0.129908" lat="51.501341"><ele>4.0</ele></trkpt>
   <trkpt lon="-0.130045" lat="51.501340"><ele>3.75</ele></trkpt>
   <trkpt lon="-0.130106" lat="51.501337"><ele>3.75</ele></trkpt>
   <trkpt lon="-0.130163" lat="51.501337"><ele>3.75</ele></trkpt>
   <trkpt lon="-0.130301" lat="51.501334"><ele>3.5</ele></trkpt>
   <trkpt lon="-0.130723" lat="51.501310"><ele>3.0</ele></trkpt>
   <trkpt lon="-0.131731" lat="51.501206"><ele>3.0</ele></trkpt>
   <trkpt lon="-0.133280" lat="51.501035"><ele>3.5</ele></trkpt>
   <trkpt lon="-0.133837" lat="51.500986"><ele>4.0</ele></trkpt>
   <trkpt lon="-0.133911" lat="51.500977"><ele>4.0</ele></trkpt>
   <trkpt lon="-0.133985" lat="51.500969"><ele>4.0</ele></trkpt>
   <trkpt lon="-0.136299" lat="51.500730"><ele>4.5</ele></trkpt>
   <trkpt lon="-0.138571" lat="51.500490"><ele>5.0</ele></trkpt>
   <trkpt lon="-0.138641" lat="51.500484"><ele>5.0</ele></trkpt>
   <trkpt lon="-0.138715" lat="51.500477"><ele>5.0</ele></trkpt>
   <trkpt lon="-0.138944" lat="51.500465"><ele>5.0</ele></trkpt>
   <trkpt lon="-0.138990" lat="51.500472"><ele>5.0</ele></trkpt>
   <trkpt lon="-0.139046" lat="51.500481"><ele>5.0</ele></trkpt>
   <trkpt lon="-0.139094" lat="51.500459"><ele>5.0</ele></trkpt>
   <trkpt lon="-0.139168" lat="51.500375"><ele>5.0</ele></trkpt>
   <trkpt lon="-0.139187" lat="51.500345"><ele>5.0</ele></trkpt>
   <trkpt lon="-0.139519" lat="51.500304"><ele>5.0</ele></trkpt>
   <trkpt lon="-0.139592" lat="51.500338"><ele>5.0</ele></trkpt>
   <trkpt lon="-0.140443" lat="51.500239"><ele>5.0</ele></trkpt>
   <trkpt lon="-0.140565" lat="51.500225"><ele>5.0</ele></trkpt>
   <trkpt lon="-0.140636" lat="51.500216"><ele>5.0</ele></trkpt>
   <trkpt lon="-0.140865" lat="51.500193"><ele>5.0</ele></trkpt>
   <trkpt lon="-0.140991" lat="51.500176"><ele>5.0</ele></trkpt>
   <trkpt lon="-0.141044" lat="51.500161"><ele>5.0</ele></trkpt>
   <trkpt lon="-0.141124" lat="51.500139"><ele>5.0</ele></trkpt>
   <trkpt lon="-0.141171" lat="51.500118"><ele>5.0</ele></trkpt>
   <trkpt lon="-0.141196" lat="51.500107"><ele>5.0</ele></trkpt>
   <trkpt lon="-0.141275" lat="51.500181"><ele>5.0</ele></trkpt>
   <trkpt lon="-0.141308" lat="51.500212"><ele>5.0</ele></trkpt>
   <trkpt lon="-0.141627" lat="51.500506"><ele>5.25</ele></trkpt>
   <trkpt lon="-0.141665" lat="51.500522"><ele>5.0</ele></trkpt>
   <trkpt lon="-0.141709" lat="51.500530"><ele>5.0</ele></trkpt>
   <trkpt lon="-0.141755" lat="51.500528"><ele>5.25</ele></trkpt>
   <trkpt lon="-0.141798" lat="51.500518"><ele>5.25</ele></trkpt>
   <trkpt lon="-0.141834" lat="51.500500"><ele>5.5</ele></trkpt>
  </trkseg>
 </trk>
</gpx>
